[
    {
        "CCSDS_OMM_VERS": "3.0",
        "COMMENT": "GENERATED VIA SPACE-TRACK.ORG API",
        "CREATION_DATE": "2025-04-14T03:05:54",
        "ORIGINATOR": "18 SPCS",
        "OBJECT_NAME": "BEIDOU 13",
        "OBJECT_ID": "2012-018B",
        "CENTER_NAME": "EARTH",
        "REF_FRAME": "TEME",
        "TIME_SYSTEM": "UTC",
        "MEAN_ELEMENT_THEORY": "SGP4",
        "EPOCH": "2025-04-13T13:21:33.227712",
        "MEAN_MOTION": "1.86232276",
        "ECCENTRICITY": "0.00117780",
        "INCLINATION": "56.0209",
        "RA_OF_ASC_NODE": "318.5623",
        "ARG_OF_PERICENTER": "278.3290",
        "MEAN_ANOMALY": "81.5733",
        "EPHEMERIS_TYPE": "0",
        "CLASSIFICATION_TYPE": "U",
        "NORAD_CAT_ID": "38251",
        "ELEMENT_SET_NO": "999",
        "REV_AT_EPOCH": "8794",
        "BSTAR": "0.00000000000000",
        "MEAN_MOTION_DOT": "-0.00000067",
        "MEAN_MOTION_DDOT": "0.0000000000000",
        "SEMIMAJOR_AXIS": "27906.061",
        "PERIOD": "773.228",
        "APOAPSIS": "21560.794",
        "PERIAPSIS": "21495.058",
        "OBJECT_TYPE": "PAYLOAD",
        "RCS_SIZE": "LARGE",
        "COUNTRY_CODE": "PRC",
        "LAUNCH_DATE": "2012-04-29",
        "SITE": "XSC",
        "DECAY_DATE": null,
        "FILE": "4701263",
        "GP_ID": "285535315",
        "TLE_LINE0": "0 BEIDOU 13",
        "TLE_LINE1": "1 38251U 12018B   25103.55663458 -.00000067  00000-0  00000-0 0  9998",
        "TLE_LINE2": "2 38251  56.0209 318.5623 0011778 278.3290  81.5733  1.86232276 87948"
    }
]